[{"OBJECT_NAME":"STARLINK-1225","OBJECT_ID":"2020-012K","EPOCH":"2026-03-09T22:29:34.222560","MEAN_MOTION":15.30176175,"ECCENTRICITY":0.00010251,"INCLINATION":53.1593,"RA_OF_ASC_NODE":38.5192,"ARG_OF_PERICENTER":81.7248,"MEAN_ANOMALY":278.3869,"EPHEMERIS_TYPE":0,"CLASSIFICATION_TYPE":"U","NORAD_CAT_ID":45187,"ELEMENT_SET_NO":999,"REV_AT_EPOCH":33497,"BSTAR":0.0001649413,"MEAN_MOTION_DOT":4.526e-5,"MEAN_MOTION_DDOT":0},{"OBJECT_NAME":"OBJECT F","OBJECT_ID":"2024-092F","EPOCH":"2026-03-09T21:54:46.147104","MEAN_MOTION":15.3361444,"ECCENTRICITY":0.00086458,"INCLINATION":97.6418,"RA_OF_ASC_NODE":198.4543,"ARG_OF_PERICENTER":142.6506,"MEAN_ANOMALY":217.5339,"EPHEMERIS_TYPE":0,"CLASSIFICATION_TYPE":"U","NORAD_CAT_ID":59778,"ELEMENT_SET_NO":999,"REV_AT_EPOCH":10053,"BSTAR":0.0007914277,"MEAN_MOTION_DOT":0.00025723,"MEAN_MOTION_DDOT":0}]
